SPACEMOBILE-003         
1 61045U 24163A   26198.18499986  .00001156  00000+0  66577-4 0  9999
2 61045  52.9669 171.4933 0004573 199.9499 160.1317 15.20710730102336
SPACEMOBILE-005         
1 61046U 24163B   26198.16843051  .00002249  00000+0  11557-3 0  9995
2 61046  52.9760 171.5204 0008601 201.6273 158.4359 15.20722432102325
SPACEMOBILE-001         
1 61047U 24163C   26198.03530450  .00000145  00000+0  21220-4 0  9990
2 61047  52.9725 171.8417 0007094 199.2363 160.8365 15.20743460102309
SPACEMOBILE-002         
1 61048U 24163D   26198.15059249 -.00007183  00000+0 -30774-3 0  9990
2 61048  52.9785 171.3520 0005763 198.8824 161.1957 15.20743440102325
SPACEMOBILE-004         
1 61049U 24163E   26197.34451692  .00012194  00000+0  56003-3 0  9998
2 61049  52.9692 174.8353 0005984 230.9141 129.1322 15.20779499102200
SPACEMOBILE-006         
1 67232U 25309A   26197.39546060  .00000913  00000+0  58828-4 0  9994
2 67232  52.9935 197.8358 0009991 219.1469 140.8802 15.18656625 31031
SPACEMOBILE-008         
1 69589U 26139A   26198.00266902  .00000250  00000+0  31052-4 0  9990
2 69589  52.9950 127.2012 0005124  60.7952 299.3551 15.12803490  4499
SPACEMOBILE-009         
1 69590U 26139B   26198.00475904  .00000281  00000+0  32868-4 0  9996
2 69590  52.9941 127.2084 0005392  56.7740 303.3767 15.12696869  4492
SPACEMOBILE-010         
1 69591U 26139C   26198.00807093  .00000490  00000+0  44833-4 0  9992
2 69591  52.9949 127.2323 0005326  48.7149 311.4300 15.12530556  4503
